[{"OBJECT_NAME":"QPS-SAR-12 (KUSHINADA-I)","OBJECT_ID":"2025-169A","EPOCH":"2026-03-09T10:50:23.327232","MEAN_MOTION":14.99881586,"ECCENTRICITY":0.00077939,"INCLINATION":42.0102,"RA_OF_ASC_NODE":204.8332,"ARG_OF_PERICENTER":277.3009,"MEAN_ANOMALY":82.6931,"EPHEMERIS_TYPE":0,"CLASSIFICATION_TYPE":"U","NORAD_CAT_ID":65116,"ELEMENT_SET_NO":999,"REV_AT_EPOCH":3243,"BSTAR":0.00057220088,"MEAN_MOTION_DOT":7.038e-5,"MEAN_MOTION_DDOT":0},{"OBJECT_NAME":"STARLINK-36240","OBJECT_ID":"2025-298B","EPOCH":"2026-03-09T22:38:13.077024","MEAN_MOTION":14.9914115,"ECCENTRICITY":0.00027696,"INCLINATION":70.0016,"RA_OF_ASC_NODE":13.8861,"ARG_OF_PERICENTER":258.7048,"MEAN_ANOMALY":101.38,"EPHEMERIS_TYPE":0,"CLASSIFICATION_TYPE":"U","NORAD_CAT_ID":67076,"ELEMENT_SET_NO":999,"REV_AT_EPOCH":1325,"BSTAR":0.00087635231,"MEAN_MOTION_DOT":0.00010601,"MEAN_MOTION_DDOT":0}]
